STARLINK-2022           
1 47643U 21012Z   23265.88451864  .00012809  00000+0  87722-3 0  9990
2 47643  53.0531 126.5106 0001419 110.4510 249.6631 15.06402221144790
